{
  "type": "FeatureCollection",
  "features": [
    {
      "type": "Feature",
      "properties": {
        "norad_id": 31033,
        "name": "FENGYUN 1C DEB",
        "group": "fengyun-1c-debris",
        "lat": 68.0140225045692,
        "lon": -43.755815253603124,
        "alt_km": 682.9537466364363,
        "timestamp": "2025-12-25T22:42:17.291615+00:00",
        "meta_object_name": "FENGYUN 1C DEB",
        "meta_object_id": "1999-025BEB",
        "meta_epoch": "2025-12-25T11:12:03.348288",
        "meta_mean_motion": 14.27466706,
        "meta_eccentricity": 0.0154181,
        "meta_inclination": 98.4399,
        "meta_ra_of_asc_node": 337.3578,
        "meta_arg_of_pericenter": 73.3068,
        "meta_mean_anomaly": 54.6243,
        "meta_ephemeris_type": 0,
        "meta_classification_type": "U",
        "meta_norad_cat_id": 31033,
        "meta_element_set_no": 999,
        "meta_rev_at_epoch": 97527,
        "meta_bstar": 0.0002276,
        "meta_mean_motion_dot": 5.91e-06,
        "meta_mean_motion_ddot": 0,
        "tle_line1": "1 31033U 99025BEB 25359.46670542  .00000591  00000+0  22760-3 0  9997",
        "tle_line2": "2 31033  98.4399 337.3578 0154181  73.3068  54.6243 14.27466706975274"
      },
      "geometry": {
        "type": "Point",
        "coordinates": [
          -43.755815253603124,
          68.0140225045692
        ]
      }
    },
    {
      "type": "Feature",
      "properties": {
        "norad_id": 31036,
        "name": "FENGYUN 1C DEB",
        "group": "fengyun-1c-debris",
        "lat": -5.588233746682105,
        "lon": -73.72673254430053,
        "alt_km": 655.8047150740049,
        "timestamp": "2025-12-25T22:42:17.291627+00:00",
        "meta_object_name": "FENGYUN 1C DEB",
        "meta_object_id": "1999-025BEE",
        "meta_epoch": "2025-12-24T06:13:16.437792",
        "meta_mean_motion": 14.49096974,
        "meta_eccentricity": 0.01377672,
        "meta_inclination": 98.9152,
        "meta_ra_of_asc_node": 105.3716,
        "meta_arg_of_pericenter": 229.7877,
        "meta_mean_anomaly": 162.0983,
        "meta_ephemeris_type": 0,
        "meta_classification_type": "U",
        "meta_norad_cat_id": 31036,
        "meta_element_set_no": 999,
        "meta_rev_at_epoch": 57474,
        "meta_bstar": 0.00027249969,
        "meta_mean_motion_dot": 1.11e-05,
        "meta_mean_motion_ddot": 0,
        "tle_line1": "1 31036U 99025BEE 25358.25921803  .00001110  00000+0  27250-3 0  9992",
        "tle_line2": "2 31036  98.9152 105.3716 0137767 229.7877 162.0983 14.49096974574744"
      },
      "geometry": {
        "type": "Point",
        "coordinates": [
          -73.72673254430053,
          -5.588233746682105
        ]
      }
    },
    {
      "type": "Feature",
      "properties": {
        "norad_id": 31038,
        "name": "FENGYUN 1C DEB",
        "group": "fengyun-1c-debris",
        "lat": -11.782774084240796,
        "lon": -97.1112310814941,
        "alt_km": 683.3839587965103,
        "timestamp": "2025-12-25T22:42:17.291638+00:00",
        "meta_object_name": "FENGYUN 1C DEB",
        "meta_object_id": "1999-025BEG",
        "meta_epoch": "2025-12-25T16:50:14.476416",
        "meta_mean_motion": 14.45874155,
        "meta_eccentricity": 0.0084534,
        "meta_inclination": 99.0115,
        "meta_ra_of_asc_node": 84.5262,
        "meta_arg_of_pericenter": 189.7685,
        "meta_mean_anomaly": 170.1865,
        "meta_ephemeris_type": 0,
        "meta_classification_type": "U",
        "meta_norad_cat_id": 31038,
        "meta_element_set_no": 999,
        "meta_rev_at_epoch": 98422,
        "meta_bstar": 0.00059413,
        "meta_mean_motion_dot": 2.154e-05,
        "meta_mean_motion_ddot": 0,
        "tle_line1": "1 31038U 99025BEG 25359.70155644  .00002154  00000+0  59413-3 0  9992",
        "tle_line2": "2 31038  99.0115  84.5262 0084534 189.7685 170.1865 14.45874155984224"
      },
      "geometry": {
        "type": "Point",
        "coordinates": [
          -97.1112310814941,
          -11.782774084240796
        ]
      }
    },
    {
      "type": "Feature",
      "properties": {
        "norad_id": 31040,
        "name": "FENGYUN 1C DEB",
        "group": "fengyun-1c-debris",
        "lat": -48.440088518791256,
        "lon": -0.6433048179766097,
        "alt_km": 880.959067710075,
        "timestamp": "2025-12-25T22:42:17.291648+00:00",
        "meta_object_name": "FENGYUN 1C DEB",
        "meta_object_id": "1999-025BEJ",
        "meta_epoch": "2025-12-24T04:52:38.079264",
        "meta_mean_motion": 14.17685286,
        "meta_eccentricity": 0.00628633,
        "meta_inclination": 98.6587,
        "meta_ra_of_asc_node": 347.7613,
        "meta_arg_of_pericenter": 161.1139,
        "meta_mean_anomaly": 259.7243,
        "meta_ephemeris_type": 0,
        "meta_classification_type": "U",
        "meta_norad_cat_id": 31040,
        "meta_element_set_no": 999,
        "meta_rev_at_epoch": 96869,
        "meta_bstar": 0.00026602335,
        "meta_mean_motion_dot": 5.1e-06,
        "meta_mean_motion_ddot": 0,
        "tle_line1": "1 31040U 99025BEJ 25358.20321851  .00000510  00000+0  26602-3 0  9992",
        "tle_line2": "2 31040  98.6587 347.7613 0062863 161.1139 259.7243 14.17685286968699"
      },
      "geometry": {
        "type": "Point",
        "coordinates": [
          -0.6433048179766097,
          -48.440088518791256
        ]
      }
    },
    {
      "type": "Feature",
      "properties": {
        "norad_id": 31041,
        "name": "FENGYUN 1C DEB",
        "group": "fengyun-1c-debris",
        "lat": -18.132997361044374,
        "lon": -153.97742714094298,
        "alt_km": 830.4526820170549,
        "timestamp": "2025-12-25T22:42:17.291657+00:00",
        "meta_object_name": "FENGYUN 1C DEB",
        "meta_object_id": "1999-025BEK",
        "meta_epoch": "2025-12-25T13:17:44.691936",
        "meta_mean_motion": 14.17947812,
        "meta_eccentricity": 0.008796,
        "meta_inclination": 99.2042,
        "meta_ra_of_asc_node": 28.6602,
        "meta_arg_of_pericenter": 283.7501,
        "meta_mean_anomaly": 75.3894,
        "meta_ephemeris_type": 0,
        "meta_classification_type": "U",
        "meta_norad_cat_id": 31041,
        "meta_element_set_no": 999,
        "meta_rev_at_epoch": 95671,
        "meta_bstar": 0.0021353,
        "meta_mean_motion_dot": 4.493e-05,
        "meta_mean_motion_ddot": 0,
        "tle_line1": "1 31041U 99025BEK 25359.55398949  .00004493  00000+0  21353-2 0  9995",
        "tle_line2": "2 31041  99.2042  28.6602 0087960 283.7501  75.3894 14.17947812956715"
      },
      "geometry": {
        "type": "Point",
        "coordinates": [
          -153.97742714094298,
          -18.132997361044374
        ]
      }
    },
    {
      "type": "Feature",
      "properties": {
        "norad_id": 31043,
        "name": "FENGYUN 1C DEB",
        "group": "fengyun-1c-debris",
        "lat": 60.100064794158065,
        "lon": -147.06067814116358,
        "alt_km": 884.9570681560172,
        "timestamp": "2025-12-25T22:42:17.291667+00:00",
        "meta_object_name": "FENGYUN 1C DEB",
        "meta_object_id": "1999-025BEM",
        "meta_epoch": "2025-12-24T14:21:11.088000",
        "meta_mean_motion": 14.0844703,
        "meta_eccentricity": 0.00408946,
        "meta_inclination": 98.7634,
        "meta_ra_of_asc_node": 16.0696,
        "meta_arg_of_pericenter": 330.3974,
        "meta_mean_anomaly": 156.9764,
        "meta_ephemeris_type": 0,
        "meta_classification_type": "U",
        "meta_norad_cat_id": 31043,
        "meta_element_set_no": 999,
        "meta_rev_at_epoch": 96154,
        "meta_bstar": 0.0004246316,
        "meta_mean_motion_dot": 6.9e-06,
        "meta_mean_motion_ddot": 0,
        "tle_line1": "1 31043U 99025BEM 25358.59804500  .00000690  00000+0  42463-3 0  9996",
        "tle_line2": "2 31043  98.7634  16.0696 0040894 330.3974 156.9764 14.08447030961546"
      },
      "geometry": {
        "type": "Point",
        "coordinates": [
          -147.06067814116358,
          60.100064794158065
        ]
      }
    },
    {
      "type": "Feature",
      "properties": {
        "norad_id": 31046,
        "name": "FENGYUN 1C DEB",
        "group": "fengyun-1c-debris",
        "lat": 55.11802481795744,
        "lon": 107.70245432181926,
        "alt_km": 642.5229053630419,
        "timestamp": "2025-12-25T22:42:17.291677+00:00",
        "meta_object_name": "FENGYUN 1C DEB",
        "meta_object_id": "1999-025BEQ",
        "meta_epoch": "2025-12-20T21:39:52.562016",
        "meta_mean_motion": 14.64082438,
        "meta_eccentricity": 0.0045404,
        "meta_inclination": 98.9685,
        "meta_ra_of_asc_node": 115.3082,
        "meta_arg_of_pericenter": 77.5729,
        "meta_mean_anomaly": 51.1771,
        "meta_ephemeris_type": 0,
        "meta_classification_type": "U",
        "meta_norad_cat_id": 31046,
        "meta_element_set_no": 999,
        "meta_rev_at_epoch": 96762,
        "meta_bstar": 0.0021927,
        "meta_mean_motion_dot": 0.00011646,
        "meta_mean_motion_ddot": 0,
        "tle_line1": "1 31046U 99025BEQ 25354.90269169  .00011646  00000+0  21927-2 0  9990",
        "tle_line2": "2 31046  98.9685 115.3082 0045404  77.5729  51.1771 14.64082438967627"
      },
      "geometry": {
        "type": "Point",
        "coordinates": [
          107.70245432181926,
          55.11802481795744
        ]
      }
    }
  ]
}